{"fetched_at":"2026-03-29T16:36:15Z","count":15609,"tles":[{"name":"STARLINK-35439","line1":"1 66431U 25259K   26087.65024290  .00024530  00000+0  89740-3 0  9998","line2":"2 66431  42.9980 167.0472 0001385 278.4813  81.5881 15.27599806 22390","category":"Starlink"}]}